GLOBALSTAR M023         
1 25621U 99004A   25307.87654742 -.00000101  00000+0  16178-4 0  9997
2 25621  52.0129 348.0819 0010356  76.4703  94.1495 12.62507340233372
GLOBALSTAR M040         
1 25622U 99004B   25308.28149573 -.00000064  00000+0  22096-3 0  9998
2 25622  51.9937 351.2103 0000639   1.6822  75.5401 12.62021696232942
GLOBALSTAR M036         
1 25623U 99004C   25308.11510097 -.00000019  00000+0  93395-3 0  9994
2 25623  51.9958 231.4967 0010667 321.6999  50.8480 11.86614142195596
GLOBALSTAR M038         
1 25624U 99004D   25307.48832045 -.00000076  00000+0  16110-3 0  9997
2 25624  51.9996  30.3960 0001406   0.5257  12.4486 12.32534896219551
GLOBALSTAR M022         
1 25649U 99012A   25308.22807718 -.00000046  00000+0  49131-3 0  9991
2 25649  52.0039 270.2046 0003041  82.8740  22.3517 12.02505644193221
GLOBALSTAR M041         
1 25650U 99012B   25307.95815750 -.00000090  00000+0 -63090-4 0  9998
2 25650  51.9993 156.6509 0000627 194.0319 166.0500 11.96680107195013
GLOBALSTAR M046         
1 25651U 99012C   25308.00629772 -.00000153  00000+0 -71337-3 0  9995
2 25651  52.0044 215.8384 0001848 148.6891 223.6459 12.09415175200586
GLOBALSTAR M037         
1 25652U 99012D   25308.25755928 -.00000075  00000+0  15782-3 0  9990
2 25652  51.9981 117.4870 0002878 123.2815  48.6883 12.62453825228962
